ORBCOMM FM115           
1 41186U 15081H   25019.44005912  .00001800  00000+0  39016-3 0  9997
2 41186  46.9999  26.7512 0000553 334.8066  25.2794 14.61967560486006
ORBCOMM FM108           
1 41187U 15081J   25019.59888480  .00002646  00000+0  61117-3 0  9999
2 41187  47.0040  88.4653 0003150 323.3004  36.7666 14.57658931485118
ORBCOMM FM117           
1 41188U 15081K   25019.49677840  .00002532  00000+0  58645-3 0  9991
2 41188  47.0004  87.7612 0003317 333.5965  26.4751 14.57657797485143
ORBCOMM FM116           
1 41189U 15081L   25019.89841499  .00001881  00000+0  44504-3 0  9994
2 41189  47.0006 175.7174 0001032 117.0141 243.0849 14.57669491484014
