<?xml version="1.0" encoding="UTF-8"?>
<ndm xmlns:xsi="http://www.w3.org/2001/XMLSchema-instance" xsi:noNamespaceSchemaLocation="https://sanaregistry.org/r/ndmxml_unqualified/ndmxml-2.0.0-master-2.0.xsd">
<omm id="CCSDS_OMM_VERS" version="2.0">
<header><CREATION_DATE/><ORIGINATOR/></header><body><segment><metadata><OBJECT_NAME>ORBCOMM FM115</OBJECT_NAME><OBJECT_ID>2015-081H</OBJECT_ID><CENTER_NAME>EARTH</CENTER_NAME><REF_FRAME>TEME</REF_FRAME><TIME_SYSTEM>UTC</TIME_SYSTEM><MEAN_ELEMENT_THEORY>SGP4</MEAN_ELEMENT_THEORY></metadata><data><meanElements><EPOCH>2025-01-19T10:33:41.107968</EPOCH><MEAN_MOTION>14.61967560</MEAN_MOTION><ECCENTRICITY>.0000553</ECCENTRICITY><INCLINATION>46.9999</INCLINATION><RA_OF_ASC_NODE>26.7512</RA_OF_ASC_NODE><ARG_OF_PERICENTER>334.8066</ARG_OF_PERICENTER><MEAN_ANOMALY>25.2794</MEAN_ANOMALY></meanElements><tleParameters><EPHEMERIS_TYPE>0</EPHEMERIS_TYPE><CLASSIFICATION_TYPE>U</CLASSIFICATION_TYPE><NORAD_CAT_ID>41186</NORAD_CAT_ID><ELEMENT_SET_NO>999</ELEMENT_SET_NO><REV_AT_EPOCH>48600</REV_AT_EPOCH><BSTAR>.39016E-3</BSTAR><MEAN_MOTION_DOT>.18E-4</MEAN_MOTION_DOT><MEAN_MOTION_DDOT>0</MEAN_MOTION_DDOT></tleParameters></data></segment></body></omm>
<omm id="CCSDS_OMM_VERS" version="2.0">
<header><CREATION_DATE/><ORIGINATOR/></header><body><segment><metadata><OBJECT_NAME>ORBCOMM FM108</OBJECT_NAME><OBJECT_ID>2015-081J</OBJECT_ID><CENTER_NAME>EARTH</CENTER_NAME><REF_FRAME>TEME</REF_FRAME><TIME_SYSTEM>UTC</TIME_SYSTEM><MEAN_ELEMENT_THEORY>SGP4</MEAN_ELEMENT_THEORY></metadata><data><meanElements><EPOCH>2025-01-19T14:22:23.646720</EPOCH><MEAN_MOTION>14.57658931</MEAN_MOTION><ECCENTRICITY>.000315</ECCENTRICITY><INCLINATION>47.0040</INCLINATION><RA_OF_ASC_NODE>88.4653</RA_OF_ASC_NODE><ARG_OF_PERICENTER>323.3004</ARG_OF_PERICENTER><MEAN_ANOMALY>36.7666</MEAN_ANOMALY></meanElements><tleParameters><EPHEMERIS_TYPE>0</EPHEMERIS_TYPE><CLASSIFICATION_TYPE>U</CLASSIFICATION_TYPE><NORAD_CAT_ID>41187</NORAD_CAT_ID><ELEMENT_SET_NO>999</ELEMENT_SET_NO><REV_AT_EPOCH>48511</REV_AT_EPOCH><BSTAR>.61117E-3</BSTAR><MEAN_MOTION_DOT>.2646E-4</MEAN_MOTION_DOT><MEAN_MOTION_DDOT>0</MEAN_MOTION_DDOT></tleParameters></data></segment></body></omm>
<omm id="CCSDS_OMM_VERS" version="2.0">
<header><CREATION_DATE/><ORIGINATOR/></header><body><segment><metadata><OBJECT_NAME>ORBCOMM FM117</OBJECT_NAME><OBJECT_ID>2015-081K</OBJECT_ID><CENTER_NAME>EARTH</CENTER_NAME><REF_FRAME>TEME</REF_FRAME><TIME_SYSTEM>UTC</TIME_SYSTEM><MEAN_ELEMENT_THEORY>SGP4</MEAN_ELEMENT_THEORY></metadata><data><meanElements><EPOCH>2025-01-19T11:55:21.653760</EPOCH><MEAN_MOTION>14.57657797</MEAN_MOTION><ECCENTRICITY>.0003317</ECCENTRICITY><INCLINATION>47.0004</INCLINATION><RA_OF_ASC_NODE>87.7612</RA_OF_ASC_NODE><ARG_OF_PERICENTER>333.5965</ARG_OF_PERICENTER><MEAN_ANOMALY>26.4751</MEAN_ANOMALY></meanElements><tleParameters><EPHEMERIS_TYPE>0</EPHEMERIS_TYPE><CLASSIFICATION_TYPE>U</CLASSIFICATION_TYPE><NORAD_CAT_ID>41188</NORAD_CAT_ID><ELEMENT_SET_NO>999</ELEMENT_SET_NO><REV_AT_EPOCH>48514</REV_AT_EPOCH><BSTAR>.58645E-3</BSTAR><MEAN_MOTION_DOT>.2532E-4</MEAN_MOTION_DOT><MEAN_MOTION_DDOT>0</MEAN_MOTION_DDOT></tleParameters></data></segment></body></omm>
<omm id="CCSDS_OMM_VERS" version="2.0">
<header><CREATION_DATE/><ORIGINATOR/></header><body><segment><metadata><OBJECT_NAME>ORBCOMM FM116</OBJECT_NAME><OBJECT_ID>2015-081L</OBJECT_ID><CENTER_NAME>EARTH</CENTER_NAME><REF_FRAME>TEME</REF_FRAME><TIME_SYSTEM>UTC</TIME_SYSTEM><MEAN_ELEMENT_THEORY>SGP4</MEAN_ELEMENT_THEORY></metadata><data><meanElements><EPOCH>2025-01-19T21:33:43.055136</EPOCH><MEAN_MOTION>14.57669491</MEAN_MOTION><ECCENTRICITY>.0001032</ECCENTRICITY><INCLINATION>47.0006</INCLINATION><RA_OF_ASC_NODE>175.7174</RA_OF_ASC_NODE><ARG_OF_PERICENTER>117.0141</ARG_OF_PERICENTER><MEAN_ANOMALY>243.0849</MEAN_ANOMALY></meanElements><tleParameters><EPHEMERIS_TYPE>0</EPHEMERIS_TYPE><CLASSIFICATION_TYPE>U</CLASSIFICATION_TYPE><NORAD_CAT_ID>41189</NORAD_CAT_ID><ELEMENT_SET_NO>999</ELEMENT_SET_NO><REV_AT_EPOCH>48401</REV_AT_EPOCH><BSTAR>.44504E-3</BSTAR><MEAN_MOTION_DOT>.1881E-4</MEAN_MOTION_DOT><MEAN_MOTION_DDOT>0</MEAN_MOTION_DDOT></tleParameters></data></segment></body></omm>
</ndm>
